NOAA 18                 
1 28654U 05018A   26097.20572861  .00000058  00000+0  54108-4 0  9998
2 28654  98.8121 177.9085 0014070 357.3171   2.7924 14.13716962 76289
NOAA 19                 
1 33591U 09005A   26097.19200400  .00000063  00000+0  57447-4 0  9994
2 33591  98.9557 168.0037 0013014 227.9546 132.0519 14.13462760884459
SUOMI NPP               
1 37849U 11061A   26097.29018828  .00000127  00000+0  81093-4 0  9996
2 37849  98.7905  38.6707 0002133 138.4855 221.6484 14.19501805748386
NOAA 20 (JPSS-1)        
1 43013U 17073A   26097.16336367  .00000114  00000+0  75086-4 0  9993
2 43013  98.7725  37.2734 0002074  98.8862 261.2549 14.19543926434397
