[{"OBJECT_NAME":"NOAA 18","OBJECT_ID":"2005-018A","EPOCH":"2026-04-07T04:56:14.951904","MEAN_MOTION":14.13716962,"ECCENTRICITY":0.00140703,"INCLINATION":98.8121,"RA_OF_ASC_NODE":177.9085,"ARG_OF_PERICENTER":357.3171,"MEAN_ANOMALY":2.7924,"EPHEMERIS_TYPE":0,"CLASSIFICATION_TYPE":"U","NORAD_CAT_ID":28654,"ELEMENT_SET_NO":999,"REV_AT_EPOCH":7628,"BSTAR":5.4108105e-5,"MEAN_MOTION_DOT":5.8e-7,"MEAN_MOTION_DDOT":0},{"OBJECT_NAME":"NOAA 19","OBJECT_ID":"2009-005A","EPOCH":"2026-04-07T04:36:29.145600","MEAN_MOTION":14.1346276,"ECCENTRICITY":0.00130146,"INCLINATION":98.9557,"RA_OF_ASC_NODE":168.0037,"ARG_OF_PERICENTER":227.9546,"MEAN_ANOMALY":132.0519,"EPHEMERIS_TYPE":0,"CLASSIFICATION_TYPE":"U","NORAD_CAT_ID":33591,"ELEMENT_SET_NO":999,"REV_AT_EPOCH":88445,"BSTAR":5.7446827e-5,"MEAN_MOTION_DOT":6.3e-7,"MEAN_MOTION_DDOT":0},{"OBJECT_NAME":"SUOMI NPP","OBJECT_ID":"2011-061A","EPOCH":"2026-04-07T06:57:52.267392","MEAN_MOTION":14.19501805,"ECCENTRICITY":0.00021338,"INCLINATION":98.7905,"RA_OF_ASC_NODE":38.6707,"ARG_OF_PERICENTER":138.4855,"MEAN_ANOMALY":221.6484,"EPHEMERIS_TYPE":0,"CLASSIFICATION_TYPE":"U","NORAD_CAT_ID":37849,"ELEMENT_SET_NO":999,"REV_AT_EPOCH":74838,"BSTAR":8.1092901e-5,"MEAN_MOTION_DOT":1.27e-6,"MEAN_MOTION_DDOT":0},{"OBJECT_NAME":"NOAA 20 (JPSS-1)","OBJECT_ID":"2017-073A","EPOCH":"2026-04-07T03:55:14.621088","MEAN_MOTION":14.19543926,"ECCENTRICITY":0.0002074,"INCLINATION":98.7725,"RA_OF_ASC_NODE":37.2734,"ARG_OF_PERICENTER":98.8862,"MEAN_ANOMALY":261.2549,"EPHEMERIS_TYPE":0,"CLASSIFICATION_TYPE":"U","NORAD_CAT_ID":43013,"ELEMENT_SET_NO":999,"REV_AT_EPOCH":43439,"BSTAR":7.5086091e-5,"MEAN_MOTION_DOT":1.14e-6,"MEAN_MOTION_DDOT":0}]
